SENTINEL-2A             
1 40697U 15028A   20206.46631811 -.00000011  00000-0  12352-4 0  9992
2 40697  98.5689 280.1802 0001123  89.0651 271.0667 14.30816405265756
AVUM R/B                
1 40698U 15028B   20206.44616514  .00001057  00000-0  50947-4 0  9996
2 40698  98.6429 145.0613 0253883 256.6468 100.6333 14.97821678277817
